[{"OBJECT_NAME":"STARLINK-34945","OBJECT_ID":"2025-175M","EPOCH":"2026-03-09T15:31:15.623040","MEAN_MOTION":15.05654082,"ECCENTRICITY":0.0002954,"INCLINATION":97.6009,"RA_OF_ASC_NODE":302.6097,"ARG_OF_PERICENTER":93.254,"MEAN_ANOMALY":266.9025,"EPHEMERIS_TYPE":0,"CLASSIFICATION_TYPE":"U","NORAD_CAT_ID":65185,"ELEMENT_SET_NO":999,"REV_AT_EPOCH":3263,"BSTAR":0.00050854,"MEAN_MOTION_DOT":7.286e-5,"MEAN_MOTION_DDOT":0},{"OBJECT_NAME":"IRIDIUM 33 DEB","OBJECT_ID":"1997-051GB","EPOCH":"2026-03-09T18:44:19.060224","MEAN_MOTION":15.02189476,"ECCENTRICITY":0.0010038,"INCLINATION":86.3931,"RA_OF_ASC_NODE":331.664,"ARG_OF_PERICENTER":138.3098,"MEAN_ANOMALY":291.9123,"EPHEMERIS_TYPE":0,"CLASSIFICATION_TYPE":"U","NORAD_CAT_ID":34486,"ELEMENT_SET_NO":999,"REV_AT_EPOCH":90290,"BSTAR":0.0023709806,"MEAN_MOTION_DOT":0.00031372,"MEAN_MOTION_DDOT":0}]
